#aV2011  8 25  0  0   .00000000      96 DD+AD WGS84 FIT  NGA
## 1650 345600.00000000   900.00000000 55798  .0000000000000
+   32     1  2  3  4  5  6  7  8  9 10 11 12 13 14 15 16 17
+         18 19 20 21 22 23 24 25 26 27 28 29 30 31 32  0  0
+          0  0  0  0  0  0  0  0  0  0  0  0  0  0  0  0  0
+          0  0  0  0  0  0  0  0  0  0  0  0  0  0  0  0  0
+          0  0  0  0  0  0  0  0  0  0  0  0  0  0  0  0  0
++         0  0  0  0  0  0  0  0  0  0  0  0  0  0  0  0  0
++         0  0  0  0  0  0  0  0  0  0  0  0  0  0  0  0  0
++         0  0  0  0  0  0  0  0  0  0  0  0  0  0  0  0  0
++         0  0  0  0  0  0  0  0  0  0  0  0  0  0  0  0  0
++         0  0  0  0  0  0  0  0  0  0  0  0  0  0  0  0  0
%c cc cc ccc ccc cccc cccc cccc cccc ccccc ccccc ccccc ccccc
%c cc cc ccc ccc cccc cccc cccc cccc ccccc ccccc ccccc ccccc
%f  0.0000000  0.000000000  0.00000000000  0.000000000000000
%f  0.0000000  0.000000000  0.00000000000  0.000000000000000
%i    0    0    0    0      0      0      0      0         0
%i    0    0    0    0      0      0      0      0         0
/*      NGA, ST. LOUIS,MO.                                  
/*   EPHEMERIS COMPUTED FROM  3 DAYS OF DATA                
/* CCCCCCCCCCCCCCCCCCCCCCCCCCCCCCCCCCCCCCCCCCCCCCCCCCCCCCCCC
/* CCCCCCCCCCCCCCCCCCCCCCCCCCCCCCCCCCCCCCCCCCCCCCCCCCCCCCCCC
*  2011  8 25 16  0   .00000000                                                 
P  1   4424.812824 -17716.415462 -19296.045030     -8.302149                    
V  1  22176.358037 -10465.900001  14692.485958      -.014295                    
P  2 -21691.077742  14536.806181   3149.230527    352.914000                    
V  2  -5370.677377  -1491.349953 -31238.505454       .016820                    
P  3  11617.499767 -15725.720604  17400.857532    759.504809                    
V  3   4506.972339  22871.285813  17535.862420       .049430                    
P  4 -24208.352902   3707.348119 -10913.135479    211.864218                    
V  4  10636.429701  -8692.667188 -26750.543078       .110969                    
P  5 -14912.528101   7871.129225  20535.469944   -208.957973                    
V  5 -21617.629811 -14654.004524  -9965.596718      -.053613                    
P  6  14345.943576 -10624.051064  19736.314154    -87.264847                    
V  6   1895.437946  24884.603501  12351.580372       .097531                    
P  7 -11228.965695 -10691.810755  21600.785411     23.651843                    
V  7  24153.473358 -12803.236046   5990.820047       .017285                    
P  8 -19114.689808  -4695.374656  18139.177585      8.976894                    
V  8  20655.345387  -9370.010504  18825.793259       .001024                    
P  9  -8242.782394  18222.019276 -18041.402259    101.436760                    
V  9 -19571.150945   9541.934061  19152.369589       .023971                    
P 10 -23759.673085  -7519.021442   9491.656661    -11.054112                    
V 10  -8771.776328  -8977.283544 -28036.588568      -.011745                    
P 11   7615.700567 -21715.224254 -13312.335315   -180.058585                    
V 11  15034.401127  -8362.579223  23176.606526      -.033192                    
P 12   4089.066430  18102.519077 -19058.362538     18.128986                    
V 12 -20756.708206 -12328.710617 -15987.102575       .024481                    
P 13  -4620.553757 -23459.354981  11339.421904    254.695613                    
V 13   3517.094728 -14277.371862 -27839.557194      -.017582                    
P 14  13938.176404   5993.051346 -21648.771431    168.891851                    
V 14  -3039.849058  27645.434872   5506.496834       .019295                    
P 15  -4820.654298  25317.444208   6045.884312   -109.145945                    
V 15  -3060.014986  -7776.003178  30334.078694       .017106                    
P 16  13922.407635  -7883.126718  21269.019254   -193.867580                    
V 16  21933.526037  15522.411624  -8314.474590      -.022761                    
P 17 -14648.193299  -5002.644895 -21462.596394    177.843849                    
V 17   2249.992468 -27472.072279   4608.052529      -.014918                    
P 18  19711.855423  17431.399408   5201.936454    154.049785                    
V 18  -6934.241305   -618.076176  29937.158407       .018794                    
P 19   8744.121886 -23470.757717   8244.354067   -176.762887                    
V 19   1613.414470  10885.071328  29562.325155      -.040489                    
P 20  -6107.665720 -18837.266146 -17870.560163     52.130818                    
V 20  20469.573963   9511.547169 -17095.162540       .004473                    
P 21  15060.732501   9276.488871  20395.845806   -167.046999                    
V 21 -21731.156479  12206.680427  10116.729938      -.025146                    
P 22  23857.920295   9130.896081  -7302.466871    145.019434                    
V 22   6034.355558   8164.248660  29087.545639      -.003469                    
P 23   -214.420926 -26267.527318   2231.411813    281.275274                    
V 23   3170.818070  -2685.090612 -31887.995504      -.029951                    
P 24   6028.027759 -17606.480004 -18782.501452    418.349374                    
V 24  22629.723007  -8473.807084  15475.095525       .032259                    
P 25  15159.796300  18595.601610 -11451.305196     15.639928                    
V 25 -13533.281585  -5634.132061 -27102.710596       .017802                    
P 26 -11982.072499  17757.699195  14844.229945   -135.260044                    
V 26    464.439889 -20107.150398  23878.189573      -.125000                    
P 27 -14087.585774  17978.554087 -12589.151119    298.454354                    
V 27 -15920.917539   6741.523472  26471.398955       .040118                    
P 28 -23039.494842 -12735.470020  -3907.524993     62.313210                    
V 28  -3344.095850  -4959.260650  31401.110912       .029795                    
P 29   5964.999864  23403.313749  11173.510533    234.227881                    
V 29  -3423.561149  13840.032723 -27284.080829       .029983                    
P 30  16501.724636  17462.367796 -11748.714097     92.096993                    
V 30 -13888.589165  -4237.502436 -26675.970718      -.005975                    
P 31  24531.233500  -6583.424216  -7934.870687    131.671751                    
V 31  -8263.247300   6396.214093 -29891.548394       .056275                    
P 32   2800.452248 -16254.571447 -20631.010794   -317.000334                    
V 32  21731.360432  15613.912891  -8809.195247      -.068507                    
EOF
